BEIJING 1               
1 28890U 05043A   22363.25248701  .00000421  00000+0  94077-4 0  9991
2 28890  98.1390 122.3472 0013911 285.8426  74.1249 14.61571204915597
HJ-1A                   
1 33320U 08041A   22363.40671890  .00000547  00000+0  82380-4 0  9995
2 33320  97.6595  27.1432 0020159 321.3310  38.6460 14.78034922771184
HJ-1B                   
1 33321U 08041B   22363.42380359  .00001166  00000+0  16649-3 0  9997
2 33321  97.6742  31.1154 0033664 338.6704  21.3105 14.78121682771183
YAOGAN 4                
1 33446U 08061A   22363.28598050  .00000731  00000+0  10911-3 0  9993
2 33446  97.8373 297.6856 0015112 219.8754 140.1347 14.77644294758365
DEIMOS-1                
1 35681U 09041A   22363.40327018  .00000478  00000+0  83136-4 0  9991
2 35681  97.6912 204.2680 0001351  21.5648 338.5609 14.72216034720459
UK-DMC 2                
1 35683U 09041C   22363.44138402  .00000689  00000+0  11804-3 0  9990
2 35683  97.7090 166.1747 0001576  70.0747 290.0647 14.71655764720187
RISAT 1                 
1 38248U 12017A   22363.48907091  .00004161  00000+0  23691-3 0  9995
2 38248  97.5493  12.8324 0002795 331.5555  28.5523 15.13375559588307
DMC3-FM1                
1 40715U 15032A   22363.42953367  .00000650  00000+0  87796-4 0  9994
2 40715  97.8219 246.1364 0004532 238.2202 121.8550 14.82335082402176
DMC3-FM2                
1 40716U 15032B   22363.38534800  .00000645  00000+0  87148-4 0  9992
2 40716  97.8264 246.8370 0006394 243.9577 116.0965 14.82348666402175
DMC3-FM3                
1 40717U 15032C   22363.40593011  .00000643  00000+0  86950-4 0  9993
2 40717  97.8300 247.8559 0007977 241.4100 118.6305 14.82325206402171
